NORAD_CAT_ID,OBJECT_NAME,OBJECT_TYPE,EPOCH,MEAN_MOTION,ECCENTRICITY,INCLINATION,RA_OF_ASC_NODE,ARG_OF_PERICENTER,MEAN_ANOMALY,BSTAR,MEAN_MOTION_DOT,MEAN_MOTION_DDOT,TLE_LINE0,TLE_LINE1,TLE_LINE2,SEMIMAJOR_AXIS,PERIOD,APOGEE,PERIGEE,DECAYED
53741.0,STARLINK-4614,PAYLOAD,2024-06-05 23:48:21,15.08841432,0.0001369,53.2144,249.5833,87.849,272.2659,1.8366e-05,4e-08,0.0,0 STARLINK-4614,1 53741U 22107AT  24157.99191948  .00000004  00000-0  18366-4 0  9993,2 53741  53.2144 249.5833 0001369  87.8490 272.2659 15.08841432 97151,6917.876,95.437,540.688,538.794,0.0
53741.0,STARLINK-4614,PAYLOAD,2024-06-06 12:31:27,15.08840855,0.0001172,53.217,247.204,95.5881,264.5245,-1.0298e-05,-4.52e-06,0.0,0 STARLINK-4614,1 53741U 22107AT  24158.52184038 -.00000452  00000-0 -10298-4 0  9990,2 53741  53.2170 247.2040 0001172  95.5881 264.5245 15.08840855 98016,6917.878,95.438,540.554,538.932,0.0
53741.0,STARLINK-4614,PAYLOAD,2024-06-07 09:11:28,15.08836073,0.0001295,53.2169,243.3383,93.6748,266.4392,1.0862e-05,-1.15e-06,0.0,0 STARLINK-4614,1 53741U 22107AT  24159.38296325 -.00000115  00000-0  10862-4 0  9990,2 53741  53.2169 243.3383 0001295  93.6748 266.4392 15.08836073 97366,6917.892,95.438,540.653,538.862,0.0
53741.0,STARLINK-4614,PAYLOAD,2024-06-08 12:13:01,15.08837469,0.0001188,53.2162,238.2841,88.1043,272.0085,4.0817e-05,3.62e-06,0.0,0 STARLINK-4614,1 53741U 22107AT  24160.50904357  .00000362  00000-0  40817-4 0  9993,2 53741  53.2162 238.2841 0001188  88.1043 272.0085 15.08837469 98317,6917.888,95.438,540.575,538.931,0.0
53741.0,STARLINK-4614,PAYLOAD,2024-06-08 13:48:24,15.08839014,0.0001193,53.2161,237.9865,87.8427,272.2702,4.0028e-05,3.49e-06,0.0,0 STARLINK-4614,1 53741U 22107AT  24160.57528266  .00000349  00000-0  40028-4 0  9990,2 53741  53.2161 237.9865 0001193  87.8427 272.2702 15.08839014 97546,6917.883,95.438,540.574,538.923,0.0
53741.0,STARLINK-4614,PAYLOAD,2024-06-09 12:03:49,15.08831692,0.00012,53.2161,233.8235,86.2965,273.8164,1.4032e-05,-6.5e-07,0.0,0 STARLINK-4614,1 53741U 22107AT  24161.50265087 -.00000065  00000-0  14032-4 0  9995,2 53741  53.2161 233.8235 0001200  86.2965 273.8164 15.08831692 97689,6917.906,95.438,540.601,538.941,0.0
53741.0,STARLINK-4614,PAYLOAD,2024-06-09 13:39:12,15.08831549,0.0001202,53.2161,233.5262,86.4159,273.6971,1.2515e-05,-8.9e-07,0.0,0 STARLINK-4614,1 53741U 22107AT  24161.56889131 -.00000089  00000-0  12515-4 0  9993,2 53741  53.2161 233.5262 0001202  86.4159 273.6971 15.08831549 98478,6917.906,95.438,540.603,538.94,0.0
53741.0,STARLINK-4614,PAYLOAD,2024-06-09 21:36:07,15.08833783,0.0001195,53.216,232.0393,86.6319,273.481,2.2444e-05,6.9e-07,0.0,0 STARLINK-4614,1 53741U 22107AT  24161.90009082  .00000069  00000-0  22444-4 0  9999,2 53741  53.2160 232.0393 0001195  86.6319 273.4810 15.08833783 98525,6917.899,95.438,540.591,538.938,0.0
53741.0,STARLINK-4614,PAYLOAD,2024-06-10 11:54:35,15.08838188,0.000119,53.2159,229.363,86.0954,274.0174,3.1026e-05,2.06e-06,0.0,0 STARLINK-4614,1 53741U 22107AT  24162.49624913  .00000206  00000-0  31026-4 0  9999,2 53741  53.2159 229.3630 0001190  86.0954 274.0174 15.08838188 97837,6917.886,95.438,540.574,538.928,0.0
53741.0,STARLINK-4614,PAYLOAD,2024-06-10 21:26:54,15.08840855,0.0001189,53.2159,227.5789,86.1233,273.9895,4.5669e-05,4.39e-06,0.0,0 STARLINK-4614,1 53741U 22107AT  24162.89368701  .00000439  00000-0  45669-4 0  9999,2 53741  53.2159 227.5789 0001189  86.1233 273.9895 15.08840855 98676,6917.878,95.438,540.565,538.92,0.0
53741.0,STARLINK-4614,PAYLOAD,2024-06-11 11:45:21,15.08850736,0.0001235,53.2162,224.9022,77.8767,282.2363,0.00017486,2.497e-05,0.0,0 STARLINK-4614,1 53741U 22107AT  24163.48983645  .00002497  00000-0  17486-3 0  9996,2 53741  53.2162 224.9022 0001235  77.8767 282.2363 15.08850736 98764,6917.848,95.437,540.567,538.858,0.0
53741.0,STARLINK-4614,PAYLOAD,2024-06-12 10:00:46,15.08841959,0.0001228,53.2168,220.7402,85.8313,274.2819,3.5827e-05,2.82e-06,0.0,0 STARLINK-4614,1 53741U 22107AT  24164.41720427  .00000282  00000-0  35827-4 0  9997,2 53741  53.2168 220.7402 0001228  85.8313 274.2819 15.08841959 98128,6917.874,95.437,540.589,538.89,0.0
53741.0,STARLINK-4614,PAYLOAD,2024-06-13 03:30:01,15.08831293,0.0001054,53.217,217.4688,91.5263,268.5849,-2.8957e-05,-7.48e-06,0.0,0 STARLINK-4614,1 53741U 22107AT  24165.14585316 -.00000748  00000-0 -28957-4 0  9999,2 53741  53.2170 217.4688 0001054  91.5263 268.5849 15.08831293 98236,6917.907,95.438,540.501,539.043,0.0
53741.0,STARLINK-4614,PAYLOAD,2024-06-13 09:51:34,15.08833347,0.0001094,53.2168,216.2802,89.1919,270.9198,-4.0985e-05,-9.4e-06,0.0,0 STARLINK-4614,1 53741U 22107AT  24165.41081316 -.00000940  00000-0 -40985-4 0  9999,2 53741  53.2168 216.2802 0001094  89.1919 270.9198 15.08833347 99050,6917.901,95.438,540.523,539.009,0.0
53741.0,STARLINK-4614,PAYLOAD,2024-06-14 09:42:20,15.0884175,0.0001096,53.2161,211.8183,91.8273,268.2845,0.00013328,1.834e-05,0.0,0 STARLINK-4614,1 53741U 22107AT  24166.40439912  .00001834  00000-0  13328-3 0  9999,2 53741  53.2161 211.8183 0001096  91.8273 268.2845 15.08841750 99204,6917.875,95.437,540.498,538.982,0.0
53741.0,STARLINK-4614,PAYLOAD,2024-06-15 12:43:54,15.08830922,0.0001131,53.2164,206.7622,92.4263,267.6859,-3.353e-05,-8.21e-06,0.0,0 STARLINK-4614,1 53741U 22107AT  24167.53049364 -.00000821  00000-0 -33530-4 0  9997,2 53741  53.2164 206.7622 0001131  92.4263 267.6859 15.08830922 99379,6917.908,95.438,540.556,538.991,0.0
53741.0,STARLINK-4614,PAYLOAD,2024-06-15 19:05:27,15.08833095,0.0001124,53.2164,205.5729,92.0362,268.0759,-2.7311e-05,-7.22e-06,0.0,0 STARLINK-4614,1 53741U 22107AT  24167.79545291 -.00000722  00000-0 -27311-4 0  9995,2 53741  53.2164 205.5729 0001124  92.0362 268.0759 15.08833095 99415,6917.901,95.438,540.544,538.989,0.0
53741.0,STARLINK-4614,PAYLOAD,2024-06-16 09:23:55,15.08839697,0.0001168,53.2162,202.8971,92.5717,267.5409,-4.5038e-05,-1.005e-05,0.0,0 STARLINK-4614,1 53741U 22107AT  24168.39161058 -.00001005  00000-0 -45038-4 0  9998,2 53741  53.2162 202.8971 0001168  92.5717 267.5409 15.08839697 99509,6917.881,95.438,540.554,538.938,0.0
53741.0,STARLINK-4614,PAYLOAD,2024-06-16 18:56:14,15.08837312,0.0001148,53.2162,201.113,91.1649,268.9474,-1.5568e-05,-5.36e-06,0.0,0 STARLINK-4614,1 53741U 22107AT  24168.78905165 -.00000536  00000-0 -15568-4 0  9999,2 53741  53.2162 201.1130 0001148  91.1649 268.9474 15.08837312 99560,6917.889,95.438,540.548,538.959,0.0
53741.0,STARLINK-4614,PAYLOAD,2024-06-17 18:47:01,15.08831336,0.0001151,53.2162,196.6536,94.3972,265.7152,5.084e-05,5.21e-06,0.0,0 STARLINK-4614,1 53741U 22107AT  24169.78265756  .00000521  00000-0  50840-4 0  9999,2 53741  53.2162 196.6536 0001151  94.3972 265.7152 15.08831336 99711,6917.907,95.438,540.568,538.976,0.0
53741.0,STARLINK-4614,PAYLOAD,2024-06-18 09:05:29,15.08836846,0.0001108,53.2157,193.9767,91.544,268.5679,3.3004e-05,2.37e-06,0.0,0 STARLINK-4614,1 53741U 22107AT  24170.37881674  .00000237  00000-0  33004-4 0  9996,2 53741  53.2157 193.9767 0001108  91.5440 268.5679 15.08836846 99808,6917.89,95.438,540.522,538.989,0.0
53741.0,STARLINK-4614,PAYLOAD,2024-06-18 18:37:48,15.08839793,0.0001102,53.2157,192.1923,89.5145,270.5974,4.5077e-05,4.3e-06,0.0,0 STARLINK-4614,1 53741U 22107AT  24170.77625465  .00000430  00000-0  45077-4 0  9992,2 53741  53.2157 192.1923 0001102  89.5145 270.5974 15.08839793 99081,6917.881,95.438,540.508,538.984,0.0
53741.0,STARLINK-4614,PAYLOAD,2024-06-19 08:56:16,15.08838502,0.000109,53.2156,189.5159,89.1572,270.9545,4.3351e-05,4.02e-06,0.0,0 STARLINK-4614,1 53741U 22107AT  24171.37241608  .00000402  00000-0  43351-4 0  9994,2 53741  53.2156 189.5159 0001090  89.1572 270.9545 15.08838502 99958,6917.885,95.438,540.504,538.996,0.0
53741.0,STARLINK-4614,PAYLOAD,2024-06-20 10:22:26,15.08840309,0.0001092,53.2158,184.7574,89.265,270.8467,1.0906e-05,-1.14e-06,0.0,0 STARLINK-4614,1 53741U 22107AT  24172.43225534 -.00000114  00000-0  10906-4 0  9993,2 53741  53.2158 184.7574 0001092  89.2650 270.8467 15.08840309100119,6917.879,95.438,540.5,538.989,0.0
53741.0,STARLINK-4614,PAYLOAD,2024-06-20 18:19:22,15.08841539,0.0001137,53.2161,183.2719,87.6024,272.5098,1.0764e-05,-1.16e-06,0.0,0 STARLINK-4614,1 53741U 22107AT  24172.76345436 -.00000116  00000-0  10764-4 0  9997,2 53741  53.2161 183.2719 0001137  87.6024 272.5098 15.08841539 99386,6917.876,95.437,540.527,538.954,0.0
53741.0,STARLINK-4614,PAYLOAD,2024-06-21 10:13:14,15.08838024,0.0001188,53.2167,180.2981,91.5877,268.5251,-1.0672e-05,-4.58e-06,0.0,0 STARLINK-4614,1 53741U 22107AT  24173.42585730 -.00000458  00000-0 -10672-4 0  9992,2 53741  53.2167 180.2981 0001188  91.5877 268.5251 15.08838024100267,6917.886,95.438,540.573,538.93,0.0
53741.0,STARLINK-4614,PAYLOAD,2024-06-22 05:17:51,15.08834413,0.0001194,53.2169,176.7291,94.3355,265.7774,-1.734e-05,-5.64e-06,0.0,0 STARLINK-4614,1 53741U 22107AT  24174.22074064 -.00000564  00000-0 -17340-4 0  9991,2 53741  53.2169 176.7291 0001194  94.3355 265.7774 15.08834413 99604,6917.897,95.438,540.588,538.936,0.0
53741.0,STARLINK-4614,PAYLOAD,2024-06-22 06:53:15,15.08834313,0.0001193,53.2169,176.4318,94.2234,265.8894,-1.7899e-05,-5.73e-06,0.0,0 STARLINK-4614,1 53741U 22107AT  24174.28698090 -.00000573  00000-0 -17899-4 0  9997,2 53741  53.2169 176.4318 0001193  94.2234 265.8894 15.08834313100397,6917.898,95.438,540.588,538.937,0.0
53741.0,STARLINK-4614,PAYLOAD,2024-06-23 09:54:48,15.08835723,0.0001154,53.2166,171.3769,93.2258,266.8866,2.6218e-05,1.29e-06,0.0,0 STARLINK-4614,1 53741U 22107AT  24175.41306126  .00000129  00000-0  26218-4 0  9999,2 53741  53.2166 171.3769 0001154  93.2258 266.8866 15.08835723 99786,6917.893,95.438,540.557,538.96,0.0
53741.0,STARLINK-4614,PAYLOAD,2024-06-24 04:59:26,15.08835851,0.0001155,53.2165,167.8092,91.8253,268.2871,4.3775e-05,4.09e-06,0.0,0 STARLINK-4614,1 53741U 22107AT  24176.20794224  .00000409  00000-0  43775-4 0  9995,2 53741  53.2165 167.8092 0001155  91.8253 268.2871 15.08835851100680,6917.893,95.438,540.557,538.959,0.0
